[{"OBJECT_NAME":"ONEWEB-0361","OBJECT_ID":"2021-090J","EPOCH":"2025-09-26T14:11:00.770496","MEAN_MOTION":13.20770915,"ECCENTRICITY":0.00019059,"INCLINATION":87.9248,"RA_OF_ASC_NODE":327.003,"ARG_OF_PERICENTER":92.0696,"MEAN_ANOMALY":268.0656,"EPHEMERIS_TYPE":0,"CLASSIFICATION_TYPE":"U","NORAD_CAT_ID":49287,"ELEMENT_SET_NO":999,"REV_AT_EPOCH":19550,"BSTAR":5.6798858e-5,"MEAN_MOTION_DOT":3.6e-7,"MEAN_MOTION_DDOT":0},{"OBJECT_NAME":"ONEWEB-0362","OBJECT_ID":"2021-090K","EPOCH":"2025-09-26T17:07:59.106720","MEAN_MOTION":13.19726609,"ECCENTRICITY":0.00018608,"INCLINATION":87.9282,"RA_OF_ASC_NODE":357.3906,"ARG_OF_PERICENTER":109.4015,"MEAN_ANOMALY":250.7319,"EPHEMERIS_TYPE":0,"CLASSIFICATION_TYPE":"U","NORAD_CAT_ID":49288,"ELEMENT_SET_NO":999,"REV_AT_EPOCH":19216,"BSTAR":-0.00013815344,"MEAN_MOTION_DOT":-4.2e-7,"MEAN_MOTION_DDOT":0},{"OBJECT_NAME":"ONEWEB-0363","OBJECT_ID":"2021-090L","EPOCH":"2025-09-26T16:22:49.458432","MEAN_MOTION":13.20770832,"ECCENTRICITY":0.00019691,"INCLINATION":87.925,"RA_OF_ASC_NODE":326.9807,"ARG_OF_PERICENTER":86.8851,"MEAN_ANOMALY":273.2508,"EPHEMERIS_TYPE":0,"CLASSIFICATION_TYPE":"U","NORAD_CAT_ID":49289,"ELEMENT_SET_NO":999,"REV_AT_EPOCH":19552,"BSTAR":7.3058081e-5,"MEAN_MOTION_DOT":4.3e-7,"MEAN_MOTION_DDOT":0},{"OBJECT_NAME":"ONEWEB-0364","OBJECT_ID":"2021-090M","EPOCH":"2025-09-26T15:28:16.999680","MEAN_MOTION":13.20770715,"ECCENTRICITY":0.00018743,"INCLINATION":87.9247,"RA_OF_ASC_NODE":327.0144,"ARG_OF_PERICENTER":92.9774,"MEAN_ANOMALY":267.1574,"EPHEMERIS_TYPE":0,"CLASSIFICATION_TYPE":"U","NORAD_CAT_ID":49290,"ELEMENT_SET_NO":999,"REV_AT_EPOCH":19665,"BSTAR":2.8256955e-5,"MEAN_MOTION_DOT":2.4e-7,"MEAN_MOTION_DDOT":0},{"OBJECT_NAME":"ONEWEB-0365","OBJECT_ID":"2021-090N","EPOCH":"2025-09-26T19:10:47.383392","MEAN_MOTION":13.19726296,"ECCENTRICITY":0.000171,"INCLINATION":87.9287,"RA_OF_ASC_NODE":357.3293,"ARG_OF_PERICENTER":102.6777,"MEAN_ANOMALY":257.4547,"EPHEMERIS_TYPE":0,"CLASSIFICATION_TYPE":"U","NORAD_CAT_ID":49291,"ELEMENT_SET_NO":999,"REV_AT_EPOCH":19168,"BSTAR":-7.1124515e-5,"MEAN_MOTION_DOT":-1.6e-7,"MEAN_MOTION_DDOT":0},{"OBJECT_NAME":"ONEWEB-0366","OBJECT_ID":"2021-090P","EPOCH":"2025-09-26T16:30:22.170240","MEAN_MOTION":13.14504271,"ECCENTRICITY":0.00018419,"INCLINATION":87.9071,"RA_OF_ASC_NODE":342.1965,"ARG_OF_PERICENTER":97.621,"MEAN_ANOMALY":262.5129,"EPHEMERIS_TYPE":0,"CLASSIFICATION_TYPE":"U","NORAD_CAT_ID":49292,"ELEMENT_SET_NO":999,"REV_AT_EPOCH":19294,"BSTAR":-0.00056342882,"MEAN_MOTION_DOT":-1.96e-6,"MEAN_MOTION_DDOT":0},{"OBJECT_NAME":"ONEWEB-0367","OBJECT_ID":"2021-090Q","EPOCH":"2025-09-26T16:20:32.869536","MEAN_MOTION":13.20769691,"ECCENTRICITY":0.00018592,"INCLINATION":87.9254,"RA_OF_ASC_NODE":326.977,"ARG_OF_PERICENTER":103.5919,"MEAN_ANOMALY":256.5422,"EPHEMERIS_TYPE":0,"CLASSIFICATION_TYPE":"U","NORAD_CAT_ID":49293,"ELEMENT_SET_NO":999,"REV_AT_EPOCH":19504,"BSTAR":-0.00012300244,"MEAN_MOTION_DOT":-3.7e-7,"MEAN_MOTION_DDOT":0},{"OBJECT_NAME":"ONEWEB-0368","OBJECT_ID":"2021-090R","EPOCH":"2025-09-26T17:31:00.559776","MEAN_MOTION":13.20769752,"ECCENTRICITY":0.00013009,"INCLINATION":87.9249,"RA_OF_ASC_NODE":327.0027,"ARG_OF_PERICENTER":73.2263,"MEAN_ANOMALY":286.9013,"EPHEMERIS_TYPE":0,"CLASSIFICATION_TYPE":"U","NORAD_CAT_ID":49294,"ELEMENT_SET_NO":999,"REV_AT_EPOCH":19620,"BSTAR":9.1026017e-5,"MEAN_MOTION_DOT":5.0e-7,"MEAN_MOTION_DDOT":0},{"OBJECT_NAME":"ONEWEB-0369","OBJECT_ID":"2021-090S","EPOCH":"2025-09-26T19:03:58.785696","MEAN_MOTION":13.19725286,"ECCENTRICITY":0.00017426,"INCLINATION":87.9286,"RA_OF_ASC_NODE":357.3621,"ARG_OF_PERICENTER":101.6872,"MEAN_ANOMALY":258.4456,"EPHEMERIS_TYPE":0,"CLASSIFICATION_TYPE":"U","NORAD_CAT_ID":49295,"ELEMENT_SET_NO":999,"REV_AT_EPOCH":19167,"BSTAR":-0.00024233728,"MEAN_MOTION_DOT":-8.4e-7,"MEAN_MOTION_DDOT":0},{"OBJECT_NAME":"ONEWEB-0370","OBJECT_ID":"2021-090T","EPOCH":"2025-09-26T16:34:11.540640","MEAN_MOTION":13.20770351,"ECCENTRICITY":0.00021323,"INCLINATION":87.9252,"RA_OF_ASC_NODE":326.9834,"ARG_OF_PERICENTER":104.0892,"MEAN_ANOMALY":256.0479,"EPHEMERIS_TYPE":0,"CLASSIFICATION_TYPE":"U","NORAD_CAT_ID":49296,"ELEMENT_SET_NO":999,"REV_AT_EPOCH":19508,"BSTAR":-0.00015204787,"MEAN_MOTION_DOT":-4.9e-7,"MEAN_MOTION_DDOT":0},{"OBJECT_NAME":"ONEWEB-0371","OBJECT_ID":"2021-090U","EPOCH":"2025-09-26T19:15:20.530080","MEAN_MOTION":13.19725218,"ECCENTRICITY":0.00018059,"INCLINATION":87.9281,"RA_OF_ASC_NODE":357.3488,"ARG_OF_PERICENTER":104.2696,"MEAN_ANOMALY":255.8637,"EPHEMERIS_TYPE":0,"CLASSIFICATION_TYPE":"U","NORAD_CAT_ID":49297,"ELEMENT_SET_NO":999,"REV_AT_EPOCH":19171,"BSTAR":-0.00020694483,"MEAN_MOTION_DOT":-7.0e-7,"MEAN_MOTION_DDOT":0},{"OBJECT_NAME":"ONEWEB-0372","OBJECT_ID":"2021-090V","EPOCH":"2025-09-26T16:18:04.774752","MEAN_MOTION":13.20772313,"ECCENTRICITY":0.0001773,"INCLINATION":87.9247,"RA_OF_ASC_NODE":326.9878,"ARG_OF_PERICENTER":98.4285,"MEAN_ANOMALY":261.7049,"EPHEMERIS_TYPE":0,"CLASSIFICATION_TYPE":"U","NORAD_CAT_ID":49298,"ELEMENT_SET_NO":999,"REV_AT_EPOCH":19505,"BSTAR":-0.00010027257,"MEAN_MOTION_DOT":-2.8e-7,"MEAN_MOTION_DDOT":0},{"OBJECT_NAME":"ONEWEB-0373","OBJECT_ID":"2021-090W","EPOCH":"2025-09-26T16:56:54.850560","MEAN_MOTION":13.20772151,"ECCENTRICITY":0.00019656,"INCLINATION":87.9245,"RA_OF_ASC_NODE":326.9958,"ARG_OF_PERICENTER":96.483,"MEAN_ANOMALY":263.6528,"EPHEMERIS_TYPE":0,"CLASSIFICATION_TYPE":"U","NORAD_CAT_ID":49299,"ELEMENT_SET_NO":999,"REV_AT_EPOCH":19624,"BSTAR":-0.00010437848,"MEAN_MOTION_DOT":-2.9e-7,"MEAN_MOTION_DDOT":0},{"OBJECT_NAME":"ONEWEB-0374","OBJECT_ID":"2021-090X","EPOCH":"2025-09-26T18:01:44.175072","MEAN_MOTION":13.14502192,"ECCENTRICITY":0.00017368,"INCLINATION":87.907,"RA_OF_ASC_NODE":342.1597,"ARG_OF_PERICENTER":80.5915,"MEAN_ANOMALY":279.5411,"EPHEMERIS_TYPE":0,"CLASSIFICATION_TYPE":"U","NORAD_CAT_ID":49300,"ELEMENT_SET_NO":999,"REV_AT_EPOCH":19295,"BSTAR":-2.6636363e-5,"MEAN_MOTION_DOT":3.0e-8,"MEAN_MOTION_DDOT":0},{"OBJECT_NAME":"ONEWEB-0375","OBJECT_ID":"2021-090Y","EPOCH":"2025-09-26T16:38:44.028096","MEAN_MOTION":13.20771189,"ECCENTRICITY":0.00021818,"INCLINATION":87.9248,"RA_OF_ASC_NODE":326.9785,"ARG_OF_PERICENTER":83.1394,"MEAN_ANOMALY":276.9988,"EPHEMERIS_TYPE":0,"CLASSIFICATION_TYPE":"U","NORAD_CAT_ID":49301,"ELEMENT_SET_NO":999,"REV_AT_EPOCH":19574,"BSTAR":3.329657e-6,"MEAN_MOTION_DOT":1.4e-7,"MEAN_MOTION_DDOT":0},{"OBJECT_NAME":"ONEWEB-0376","OBJECT_ID":"2021-090Z","EPOCH":"2025-09-26T19:13:04.601280","MEAN_MOTION":13.19724359,"ECCENTRICITY":0.00016195,"INCLINATION":87.9287,"RA_OF_ASC_NODE":357.3316,"ARG_OF_PERICENTER":105.2304,"MEAN_ANOMALY":254.9008,"EPHEMERIS_TYPE":0,"CLASSIFICATION_TYPE":"U","NORAD_CAT_ID":49302,"ELEMENT_SET_NO":999,"REV_AT_EPOCH":19171,"BSTAR":-0.00011800442,"MEAN_MOTION_DOT":-3.4e-7,"MEAN_MOTION_DDOT":0}]
